{
  "type": "FeatureCollection",
  "features": [
    {
      "type": "Feature",
      "properties": {
        "norad_id": 35435,
        "name": "COSMOS 2251 DEB",
        "group": "cosmos-2251-debris",
        "lat": 16.82475014928672,
        "lon": -107.46333520438306,
        "alt_km": 628.5860397772749,
        "timestamp": "2025-12-26T05:31:12.902537+00:00",
        "meta_object_name": "COSMOS 2251 DEB",
        "meta_object_id": "1993-036AKD",
        "meta_epoch": "2025-12-24T14:06:56.153952",
        "meta_mean_motion": 14.7881181,
        "meta_eccentricity": 0.0006651,
        "meta_inclination": 74.0105,
        "meta_ra_of_asc_node": 80.7425,
        "meta_arg_of_pericenter": 178.2322,
        "meta_mean_anomaly": 246.8342,
        "meta_ephemeris_type": 0,
        "meta_classification_type": "U",
        "meta_norad_cat_id": 35435,
        "meta_element_set_no": 999,
        "meta_rev_at_epoch": 87714,
        "meta_bstar": 0.0021800293,
        "meta_mean_motion_dot": 0.00016047,
        "meta_mean_motion_ddot": 0,
        "tle_line1": "1 35435U 93036AKD 25358.58814993  .00016047  00000+0  21800-2 0  9991",
        "tle_line2": "2 35435  74.0105  80.7425 0006651 178.2322 246.8342 14.78811810877143"
      },
      "geometry": {
        "type": "Point",
        "coordinates": [
          -107.46333520438306,
          16.82475014928672
        ]
      }
    },
    {
      "type": "Feature",
      "properties": {
        "norad_id": 35439,
        "name": "COSMOS 2251 DEB",
        "group": "cosmos-2251-debris",
        "lat": -61.076628283628295,
        "lon": -37.13570071012795,
        "alt_km": 774.6548538111965,
        "timestamp": "2025-12-26T05:31:12.902547+00:00",
        "meta_object_name": "COSMOS 2251 DEB",
        "meta_object_id": "1993-036AKH",
        "meta_epoch": "2025-12-23T01:03:41.280192",
        "meta_mean_motion": 13.9285581,
        "meta_eccentricity": 0.02428241,
        "meta_inclination": 74.0195,
        "meta_ra_of_asc_node": 117.083,
        "meta_arg_of_pericenter": 284.1415,
        "meta_mean_anomaly": 194.5054,
        "meta_ephemeris_type": 0,
        "meta_classification_type": "U",
        "meta_norad_cat_id": 35439,
        "meta_element_set_no": 999,
        "meta_rev_at_epoch": 84104,
        "meta_bstar": 0.0017241175,
        "meta_mean_motion_dot": 2.822e-05,
        "meta_mean_motion_ddot": 0,
        "tle_line1": "1 35439U 93036AKH 25357.04422778  .00002822  00000+0  17241-2 0  9991",
        "tle_line2": "2 35439  74.0195 117.0830 0242824 284.1415 194.5054 13.92855810841046"
      },
      "geometry": {
        "type": "Point",
        "coordinates": [
          -37.13570071012795,
          -61.076628283628295
        ]
      }
    },
    {
      "type": "Feature",
      "properties": {
        "norad_id": 35440,
        "name": "COSMOS 2251 DEB",
        "group": "cosmos-2251-debris",
        "lat": 44.244259203744356,
        "lon": -162.30062202183578,
        "alt_km": 658.0111007185806,
        "timestamp": "2025-12-26T05:31:12.902557+00:00",
        "meta_object_name": "COSMOS 2251 DEB",
        "meta_object_id": "1993-036AKJ",
        "meta_epoch": "2025-12-22T19:34:52.667040",
        "meta_mean_motion": 14.68858524,
        "meta_eccentricity": 0.00697181,
        "meta_inclination": 74.0136,
        "meta_ra_of_asc_node": 188.1002,
        "meta_arg_of_pericenter": 326.674,
        "meta_mean_anomaly": 33.0049,
        "meta_ephemeris_type": 0,
        "meta_classification_type": "U",
        "meta_norad_cat_id": 35440,
        "meta_element_set_no": 999,
        "meta_rev_at_epoch": 68913,
        "meta_bstar": 0.00037964995,
        "meta_mean_motion_dot": 2.268e-05,
        "meta_mean_motion_ddot": 0,
        "tle_line1": "1 35440U 93036AKJ 25356.81588735  .00002268  00000+0  37965-3 0  9993",
        "tle_line2": "2 35440  74.0136 188.1002 0069718 326.6740  33.0049 14.68858524689135"
      },
      "geometry": {
        "type": "Point",
        "coordinates": [
          -162.30062202183578,
          44.244259203744356
        ]
      }
    },
    {
      "type": "Feature",
      "properties": {
        "norad_id": 35441,
        "name": "COSMOS 2251 DEB",
        "group": "cosmos-2251-debris",
        "lat": 56.56572748648971,
        "lon": -62.081111055319866,
        "alt_km": 684.4567502899727,
        "timestamp": "2025-12-26T05:31:12.902566+00:00",
        "meta_object_name": "COSMOS 2251 DEB",
        "meta_object_id": "1993-036AKK",
        "meta_epoch": "2025-12-24T12:12:34.900128",
        "meta_mean_motion": 14.62759756,
        "meta_eccentricity": 0.0036013,
        "meta_inclination": 74.1345,
        "meta_ra_of_asc_node": 275.6818,
        "meta_arg_of_pericenter": 167.8993,
        "meta_mean_anomaly": 192.3049,
        "meta_ephemeris_type": 0,
        "meta_classification_type": "U",
        "meta_norad_cat_id": 35441,
        "meta_element_set_no": 999,
        "meta_rev_at_epoch": 87602,
        "meta_bstar": 0.0014950847,
        "meta_mean_motion_dot": 7.673e-05,
        "meta_mean_motion_ddot": 0,
        "tle_line1": "1 35441U 93036AKK 25358.50873727  .00007673  00000+0  14951-2 0  9994",
        "tle_line2": "2 35441  74.1345 275.6818 0036013 167.8993 192.3049 14.62759756876029"
      },
      "geometry": {
        "type": "Point",
        "coordinates": [
          -62.081111055319866,
          56.56572748648971
        ]
      }
    },
    {
      "type": "Feature",
      "properties": {
        "norad_id": 35442,
        "name": "COSMOS 2251 DEB",
        "group": "cosmos-2251-debris",
        "lat": -65.0436755306888,
        "lon": 34.36983656325061,
        "alt_km": 621.5330529424555,
        "timestamp": "2025-12-26T05:31:12.902576+00:00",
        "meta_object_name": "COSMOS 2251 DEB",
        "meta_object_id": "1993-036AKL",
        "meta_epoch": "2025-12-25T15:17:05.194752",
        "meta_mean_motion": 14.84871304,
        "meta_eccentricity": 0.000409,
        "meta_inclination": 74.0274,
        "meta_ra_of_asc_node": 73.5324,
        "meta_arg_of_pericenter": 35.8112,
        "meta_mean_anomaly": 324.334,
        "meta_ephemeris_type": 0,
        "meta_classification_type": "U",
        "meta_norad_cat_id": 35442,
        "meta_element_set_no": 999,
        "meta_rev_at_epoch": 87544,
        "meta_bstar": 0.0020511,
        "meta_mean_motion_dot": 0.00017456,
        "meta_mean_motion_ddot": 0,
        "tle_line1": "1 35442U 93036AKL 25359.63686568  .00017456  00000+0  20511-2 0  9994",
        "tle_line2": "2 35442  74.0274  73.5324 0004090  35.8112 324.3340 14.84871304875448"
      },
      "geometry": {
        "type": "Point",
        "coordinates": [
          34.36983656325061,
          -65.0436755306888
        ]
      }
    },
    {
      "type": "Feature",
      "properties": {
        "norad_id": 35443,
        "name": "COSMOS 2251 DEB",
        "group": "cosmos-2251-debris",
        "lat": -32.74125804145516,
        "lon": 134.8518463194856,
        "alt_km": 612.5161575074726,
        "timestamp": "2025-12-26T05:31:12.902586+00:00",
        "meta_object_name": "COSMOS 2251 DEB",
        "meta_object_id": "1993-036AKM",
        "meta_epoch": "2025-12-25T02:55:33.229632",
        "meta_mean_motion": 14.97777524,
        "meta_eccentricity": 0.00729717,
        "meta_inclination": 73.9857,
        "meta_ra_of_asc_node": 306.46,
        "meta_arg_of_pericenter": 85.2675,
        "meta_mean_anomaly": 275.6839,
        "meta_ephemeris_type": 0,
        "meta_classification_type": "U",
        "meta_norad_cat_id": 35443,
        "meta_element_set_no": 999,
        "meta_rev_at_epoch": 87063,
        "meta_bstar": 0.0041651675,
        "meta_mean_motion_dot": 0.00051993,
        "meta_mean_motion_ddot": 0,
        "tle_line1": "1 35443U 93036AKM 25359.12191238  .00051993  00000+0  41652-2 0  9997",
        "tle_line2": "2 35443  73.9857 306.4600 0072971  85.2675 275.6839 14.97777524870635"
      },
      "geometry": {
        "type": "Point",
        "coordinates": [
          134.8518463194856,
          -32.74125804145516
        ]
      }
    },
    {
      "type": "Feature",
      "properties": {
        "norad_id": 35445,
        "name": "COSMOS 2251 DEB",
        "group": "cosmos-2251-debris",
        "lat": -23.643907710414712,
        "lon": 101.48392874838396,
        "alt_km": 790.8600165501339,
        "timestamp": "2025-12-26T05:31:12.902596+00:00",
        "meta_object_name": "COSMOS 2251 DEB",
        "meta_object_id": "1993-036AKP",
        "meta_epoch": "2025-12-24T19:40:46.420608",
        "meta_mean_motion": 14.59408318,
        "meta_eccentricity": 0.01439573,
        "meta_inclination": 74.0386,
        "meta_ra_of_asc_node": 276.9734,
        "meta_arg_of_pericenter": 1.0045,
        "meta_mean_anomaly": 359.138,
        "meta_ephemeris_type": 0,
        "meta_classification_type": "U",
        "meta_norad_cat_id": 35445,
        "meta_element_set_no": 999,
        "meta_rev_at_epoch": 87505,
        "meta_bstar": 0.0021997687,
        "meta_mean_motion_dot": 0.00012035,
        "meta_mean_motion_ddot": 0,
        "tle_line1": "1 35445U 93036AKP 25358.81998172  .00012035  00000+0  21998-2 0  9991",
        "tle_line2": "2 35445  74.0386 276.9734 0143957   1.0045 359.1380 14.59408318875055"
      },
      "geometry": {
        "type": "Point",
        "coordinates": [
          101.48392874838396,
          -23.643907710414712
        ]
      }
    }
  ]
}